[{"OBJECT_NAME":"STARLINK-34984","OBJECT_ID":"2025-184T","EPOCH":"2026-03-09T16:53:00.151872","MEAN_MOTION":15.05647339,"ECCENTRICITY":8.635e-5,"INCLINATION":97.6033,"RA_OF_ASC_NODE":122.6862,"ARG_OF_PERICENTER":113.8583,"MEAN_ANOMALY":246.2734,"EPHEMERIS_TYPE":0,"CLASSIFICATION_TYPE":"U","NORAD_CAT_ID":65290,"ELEMENT_SET_NO":999,"REV_AT_EPOCH":3130,"BSTAR":0.00010638319,"MEAN_MOTION_DOT":1.474e-5,"MEAN_MOTION_DDOT":0},{"OBJECT_NAME":"SL-8 R\/B","OBJECT_ID":"1968-040B","EPOCH":"2026-03-09T18:37:46.369632","MEAN_MOTION":15.03260494,"ECCENTRICITY":0.00239141,"INCLINATION":74.0322,"RA_OF_ASC_NODE":313.5182,"ARG_OF_PERICENTER":137.361,"MEAN_ANOMALY":222.9441,"EPHEMERIS_TYPE":0,"CLASSIFICATION_TYPE":"U","NORAD_CAT_ID":3230,"ELEMENT_SET_NO":999,"REV_AT_EPOCH":9002,"BSTAR":0.00025747843,"MEAN_MOTION_DOT":3.469e-5,"MEAN_MOTION_DDOT":0}]
